start=new Date('2023-06-28T00:00:00.000Z').valueOf();
sats=[{"BSTAR":"0.00010018000000","OBJECT_TYPE":"PAYLOAD","RCS_SIZE":"LARGE","MEAN_ANOMALY":"276.0845","TIME_SYSTEM":"UTC","TLE_LINE1":"1 47625U 21012F   23178.40701050  .00001211  00000-0  10018-3 0  9996","COUNTRY_CODE":"US","LAUNCH_DATE":"2021-02-16","OBJECT_NAME":"STARLINK-1704","ARG_OF_PERICENTER":"84.0270","MEAN_ELEMENT_THEORY":"SGP4","APOAPSIS":"547.966","MEAN_MOTION_DOT":"0.00001211","ECCENTRICITY":"0.00011070","MEAN_MOTION":"15.06404493","TLE_LINE2":"2 47625  53.0524 179.2023 0001107  84.0270 276.0845 15.06404493130810","SEMIMAJOR_AXIS":"6925.335","GP_ID":"234582316","NORAD_CAT_ID":"47625","EPHEMERIS_TYPE":"0","REV_AT_EPOCH":"13081","OBJECT_ID":"2021-012F","SITE":"AFETR","EPOCH":"2023-06-27T09:46:05.707200","MEAN_MOTION_DDOT":"0.0000000000000","CENTER_NAME":"EARTH","PERIOD":"95.592","ELEMENT_SET_NO":"999","INCLINATION":"53.0524","PERIAPSIS":"546.433","CLASSIFICATION_TYPE":"U","RA_OF_ASC_NODE":"179.2023","DECAY_DATE":null,"FILE":"3944006","REF_FRAME":"TEME"},{"APOAPSIS":"547.924","MEAN_MOTION_DOT":"0.00000983","MEAN_MOTION":"15.06403813","ECCENTRICITY":"0.00010430","TLE_LINE2":"2 47626  53.0535 180.7610 0001043  76.7005 283.4100 15.06403813130760","NORAD_CAT_ID":"47626","GP_ID":"234578540","SEMIMAJOR_AXIS":"6925.337","OBJECT_TYPE":"PAYLOAD","BSTAR":"0.00008485500000","MEAN_ANOMALY":"283.4100","RCS_SIZE":"LARGE","TLE_LINE1":"1 47626U 21012G   23178.06147980  .00000983  00000-0  84855-4 0  9991","TIME_SYSTEM":"UTC","COUNTRY_CODE":"US","LAUNCH_DATE":"2021-02-16","ARG_OF_PERICENTER":"76.7005","OBJECT_NAME":"STARLINK-1761","MEAN_ELEMENT_THEORY":"SGP4","INCLINATION":"53.0535","PERIAPSIS":"546.480","CLASSIFICATION_TYPE":"U","RA_OF_ASC_NODE":"180.7610","DECAY_DATE":null,"REF_FRAME":"TEME","FILE":"3943857","REV_AT_EPOCH":"13076","EPHEMERIS_TYPE":"0","SITE":"AFETR","OBJECT_ID":"2021-012G","MEAN_MOTION_DDOT":"0.0000000000000","EPOCH":"2023-06-27T01:28:31.854720","CENTER_NAME":"EARTH","ELEMENT_SET_NO":"999","PERIOD":"95.592"},{"EPHEMERIS_TYPE":"0","REV_AT_EPOCH":"13214","OBJECT_ID":"2021-012H","SITE":"AFETR","EPOCH":"2023-06-27T11:17:02.993856","MEAN_MOTION_DDOT":"0.0000000000000","CENTER_NAME":"EARTH","PERIOD":"95.593","ELEMENT_SET_NO":"999","INCLINATION":"53.0534","PERIAPSIS":"546.527","CLASSIFICATION_TYPE":"U","RA_OF_ASC_NODE":"83.9284","DECAY_DATE":null,"FILE":"3944006","REF_FRAME":"TEME","BSTAR":"0.00170680000000","OBJECT_TYPE":"PAYLOAD","MEAN_ANOMALY":"277.4397","RCS_SIZE":"LARGE","TIME_SYSTEM":"UTC","TLE_LINE1":"1 47627U 21012H   23178.47017354  .00025223  00000-0  17068-2 0  9992","COUNTRY_CODE":"US","LAUNCH_DATE":"2021-02-16","OBJECT_NAME":"STARLINK-1972","ARG_OF_PERICENTER":"82.6712","MEAN_ELEMENT_THEORY":"SGP4","APOAPSIS":"547.990","MEAN_MOTION_DOT":"0.00025223","ECCENTRICITY":"0.00010560","MEAN_MOTION":"15.06385422","TLE_LINE2":"2 47627  53.0534  83.9284 0001056  82.6712 277.4397 15.06385422132146","SEMIMAJOR_AXIS":"6925.393","NORAD_CAT_ID":"47627","GP_ID":"234581815"},{"APOAPSIS":"548.043","MEAN_MOTION_DOT":"0.00000185","ECCENTRICITY":"0.00011430","MEAN_MOTION":"15.06387798","TLE_LINE2":"2 47628  53.0530 179.1050 0001143  82.0748 278.0371 15.06387798130811","SEMIMAJOR_AXIS":"6925.386","GP_ID":"234582318","NORAD_CAT_ID":"47628","BSTAR":"0.00003129200000","OBJECT_TYPE":"PAYLOAD","RCS_SIZE":"LARGE","MEAN_ANOMALY":"278.0371","TIME_SYSTEM":"UTC","TLE_LINE1":"1 47628U 21012J   23178.42914638  .00000185  00000-0  31292-4 0  9996","COUNTRY_CODE":"US","LAUNCH_DATE":"2021-02-16","ARG_OF_PERICENTER":"82.0748","OBJECT_NAME":"STARLINK-1973","MEAN_ELEMENT_THEORY":"SGP4","PERIAPSIS":"546.459","INCLINATION":"53.0530","CLASSIFICATION_TYPE":"U","RA_OF_ASC_NODE":"179.1050","DECAY_DATE":null,"FILE":"3944006","REF_FRAME":"TEME","EPHEMERIS_TYPE":"0","REV_AT_EPOCH":"13081","OBJECT_ID":"2021-012J","SITE":"AFETR","EPOCH":"2023-06-27T10:17:58.247232","MEAN_MOTION_DDOT":"0.0000000000000","CENTER_NAME":"EARTH","ELEMENT_SET_NO":"999","PERIOD":"95.593"},{"APOAPSIS":"548.005","MEAN_MOTION_DOT":"0.00007510","ECCENTRICITY":"0.00010790","MEAN_MOTION":"15.06385459","SEMIMAJOR_AXIS":"6925.393","GP_ID":"234576279","NORAD_CAT_ID":"47629","TLE_LINE2":"2 47629  53.0544  60.6789 0001079  72.5018 287.6089 15.06385459132447","MEAN_ANOMALY":"287.6089","RCS_SIZE":"LARGE","BSTAR":"0.00052273000000","OBJECT_TYPE":"PAYLOAD","COUNTRY_CODE":"US","TIME_SYSTEM":"UTC","TLE_LINE1":"1 47629U 21012K   23178.07992781  .00007510  00000-0  52273-3 0  9993","LAUNCH_DATE":"2021-02-16","MEAN_ELEMENT_THEORY":"SGP4","ARG_OF_PERICENTER":"72.5018","OBJECT_NAME":"STARLINK-1974","CLASSIFICATION_TYPE":"U","PERIAPSIS":"546.511","INCLINATION":"53.0544","DECAY_DATE":null,"RA_OF_ASC_NODE":"60.6789","FILE":"3943750","REF_FRAME":"TEME","OBJECT_ID":"2021-012K","SITE":"AFETR","EPHEMERIS_TYPE":"0","REV_AT_EPOCH":"13244","CENTER_NAME":"EARTH","EPOCH":"2023-06-27T01:55:05.762784","MEAN_MOTION_DDOT":"0.0000000000000","PERIOD":"95.593","ELEMENT_SET_NO":"999"},{"DECAY_DATE":null,"RA_OF_ASC_NODE":"158.2764","CLASSIFICATION_TYPE":"U","PERIAPSIS":"546.416","INCLINATION":"53.0532","REF_FRAME":"TEME","FILE":"3944345","CENTER_NAME":"EARTH","MEAN_MOTION_DDOT":"0.0000000000000","EPOCH":"2023-06-27T15:13:53.778144","SITE":"AFETR","OBJECT_ID":"2021-012L","REV_AT_EPOCH":"13112","EPHEMERIS_TYPE":"0","PERIOD":"95.592","ELEMENT_SET_NO":"999","MEAN_MOTION_DOT":"0.00001322","APOAPSIS":"548.030","GP_ID":"234589721","NORAD_CAT_ID":"47630","SEMIMAJOR_AXIS":"6925.358","TLE_LINE2":"2 47630  53.0532 158.2764 0001165  86.8059 273.3064 15.06396853131121","MEAN_MOTION":"15.06396853","ECCENTRICITY":"0.00011650","COUNTRY_CODE":"US","TLE_LINE1":"1 47630U 21012L   23178.63465021  .00001322  00000-0  10764-3 0  9993","TIME_SYSTEM":"UTC","MEAN_ANOMALY":"273.3064","RCS_SIZE":"LARGE","OBJECT_TYPE":"PAYLOAD","BSTAR":"0.00010764000000","MEAN_ELEMENT_THEORY":"SGP4","ARG_OF_PERICENTER":"86.8059","OBJECT_NAME":"STARLINK-1983","LAUNCH_DATE":"2021-02-16"},{"FILE":"3943765","REF_FRAME":"TEME","DECAY_DATE":null,"RA_OF_ASC_NODE":"85.6088","CLASSIFICATION_TYPE":"U","PERIAPSIS":"546.355","INCLINATION":"53.0547","PERIOD":"95.595","ELEMENT_SET_NO":"999","CENTER_NAME":"EARTH","EPOCH":"2023-06-27T02:19:35.840640","MEAN_MOTION_DDOT":"0.0000000000000","OBJECT_ID":"2021-012N","SITE":"AFETR","EPHEMERIS_TYPE":"0","REV_AT_EPOCH":"13209","SEMIMAJOR_AXIS":"6925.463","NORAD_CAT_ID":"47632","GP_ID":"234575793","TLE_LINE2":"2 47632  53.0547  85.6088 0001405 105.5105 254.6040 15.06362593132096","ECCENTRICITY":"0.00014050","MEAN_MOTION":"15.06362593","MEAN_MOTION_DOT":"0.00017938","APOAPSIS":"548.301","MEAN_ELEMENT_THEORY":"SGP4","OBJECT_NAME":"STARLINK-1992","ARG_OF_PERICENTER":"105.5105","LAUNCH_DATE":"2021-02-16","COUNTRY_CODE":"US","TIME_SYSTEM":"UTC","TLE_LINE1":"1 47632U 21012N   23178.09694260  .00017938  00000-0  12213-2 0  9994","MEAN_ANOMALY":"254.6040","RCS_SIZE":"LARGE","BSTAR":"0.00122130000000","OBJECT_TYPE":"PAYLOAD"},{"RA_OF_ASC_NODE":"179.3555","DECAY_DATE":null,"PERIAPSIS":"546.562","INCLINATION":"53.0522","CLASSIFICATION_TYPE":"U","REF_FRAME":"TEME","FILE":"3944008","MEAN_MOTION_DDOT":"0.0000000000000","EPOCH":"2023-06-27T09:08:56.356512","CENTER_NAME":"EARTH","REV_AT_EPOCH":"13081","EPHEMERIS_TYPE":"0","SITE":"AFETR","OBJECT_ID":"2021-012P","PERIOD":"95.592","ELEMENT_SET_NO":"999","MEAN_MOTION_DOT":"-0.00000810","APOAPSIS":"547.885","TLE_LINE2":"2 47633  53.0522 179.3555 0000955  92.4185 267.6913 15.06396698130815","GP_ID":"234581861","NORAD_CAT_ID":"47633","SEMIMAJOR_AXIS":"6925.359","MEAN_MOTION":"15.06396698","ECCENTRICITY":"0.00009550","TLE_LINE1":"1 47633U 21012P   23178.38120783 -.00000810  00000-0 -35523-4 0  9995","TIME_SYSTEM":"UTC","COUNTRY_CODE":"US","OBJECT_TYPE":"PAYLOAD","BSTAR":"-0.00003552300000","MEAN_ANOMALY":"267.6913","RCS_SIZE":"LARGE","OBJECT_NAME":"STARLINK-2009","ARG_OF_PERICENTER":"92.4185","MEAN_ELEMENT_THEORY":"SGP4","LAUNCH_DATE":"2021-02-16"},{"OBJECT_ID":"2021-012Q","SITE":"AFETR","EPHEMERIS_TYPE":"0","REV_AT_EPOCH":"13085","CENTER_NAME":"EARTH","EPOCH":"2023-06-27T16:30:50.640768","MEAN_MOTION_DDOT":"0.0000000000000","ELEMENT_SET_NO":"999","PERIOD":"95.592","CLASSIFICATION_TYPE":"U","PERIAPSIS":"546.379","INCLINATION":"53.0538","DECAY_DATE":null,"RA_OF_ASC_NODE":"177.9516","FILE":"3944346","REF_FRAME":"TEME","MEAN_ANOMALY":"269.8311","RCS_SIZE":"LARGE","BSTAR":"0.00002095700000","OBJECT_TYPE":"PAYLOAD","COUNTRY_CODE":"US","TIME_SYSTEM":"UTC","TLE_LINE1":"1 47634U 21012Q   23178.68808612  .00000031  00000-0  20957-4 0  9991","LAUNCH_DATE":"2021-02-16","MEAN_ELEMENT_THEORY":"SGP4","ARG_OF_PERICENTER":"90.2817","OBJECT_NAME":"STARLINK-2010","APOAPSIS":"548.053","MEAN_MOTION_DOT":"0.00000031","ECCENTRICITY":"0.00012080","MEAN_MOTION":"15.06399205","SEMIMAJOR_AXIS":"6925.351","NORAD_CAT_ID":"47634","GP_ID":"234590517","TLE_LINE2":"2 47634  53.0538 177.9516 0001208  90.2817 269.8311 15.06399205130851"},{"LAUNCH_DATE":"2021-02-16","MEAN_ELEMENT_THEORY":"SGP4","ARG_OF_PERICENTER":"114.4795","OBJECT_NAME":"STARLINK-2012","MEAN_ANOMALY":"245.6321","RCS_SIZE":"LARGE","OBJECT_TYPE":"PAYLOAD","BSTAR":"0.00115990000000","COUNTRY_CODE":"US","TLE_LINE1":"1 47635U 21012R   23178.44805210  .00017033  00000-0  11599-2 0  9997","TIME_SYSTEM":"UTC","MEAN_MOTION":"15.06391463","ECCENTRICITY":"0.00012210","NORAD_CAT_ID":"47635","GP_ID":"234591018","SEMIMAJOR_AXIS":"6925.375","TLE_LINE2":"2 47635  53.0533  84.0272 0001221 114.4795 245.6321 15.06391463132148","APOAPSIS":"548.085","MEAN_MOTION_DOT":"0.00017033","ELEMENT_SET_NO":"999","PERIOD":"95.593","SITE":"AFETR","OBJECT_ID":"2021-012R","REV_AT_EPOCH":"13214","EPHEMERIS_TYPE":"0","CENTER_NAME":"EARTH","MEAN_MOTION_DDOT":"0.0000000000000","EPOCH":"2023-06-27T10:45:11.701440","REF_FRAME":"TEME","FILE":"3944346","CLASSIFICATION_TYPE":"U","PERIAPSIS":"546.394","INCLINATION":"53.0533","DECAY_DATE":null,"RA_OF_ASC_NODE":"84.0272"}];
